start=new Date('2022-12-24T00:00:00.000Z').valueOf();
sats=[{"DECAY_DATE":null,"INCLINATION":"53.0567","EPHEMERIS_TYPE":"0","NORAD_CAT_ID":"45553","REF_FRAME":"TEME","GP_ID":"221272989","APOAPSIS":"548.384","ECCENTRICITY":"0.00016690","ELEMENT_SET_NO":"999","MEAN_MOTION":"15.06395223","BSTAR":"0.00019560000000","CENTER_NAME":"EARTH","TIME_SYSTEM":"UTC","PERIOD":"95.592","ARG_OF_PERICENTER":"56.7641","RA_OF_ASC_NODE":"308.5009","REV_AT_EPOCH":"14741","MEAN_ELEMENT_THEORY":"SGP4","MEAN_MOTION_DDOT":"0.0000000000000","CLASSIFICATION_TYPE":"U","MEAN_MOTION_DOT":"0.00002633","TLE_LINE2":"2 45553  53.0567 308.5009 0001669  56.7641 303.3508 15.06395223147411","COUNTRY_CODE":"US","EPOCH":"2022-12-23T13:31:13.541088","RCS_SIZE":"LARGE","TLE_LINE1":"1 45553U 20025Y   22357.56335117  .00002633  00000-0  19560-3 0  9999","FILE":"3720302","OBJECT_TYPE":"PAYLOAD","PERIAPSIS":"546.072","MEAN_ANOMALY":"303.3508","OBJECT_NAME":"STARLINK-1323","LAUNCH_DATE":"2020-04-22","SITE":"AFETR","SEMIMAJOR_AXIS":"6925.363","OBJECT_ID":"2020-025Y"},{"REF_FRAME":"TEME","EPHEMERIS_TYPE":"0","NORAD_CAT_ID":"45554","INCLINATION":"53.0562","DECAY_DATE":null,"MEAN_MOTION":"15.06392092","ELEMENT_SET_NO":"999","ECCENTRICITY":"0.00016620","APOAPSIS":"548.389","GP_ID":"221302616","PERIOD":"95.593","TIME_SYSTEM":"UTC","CENTER_NAME":"EARTH","BSTAR":"0.00008623800000","MEAN_MOTION_DDOT":"0.0000000000000","MEAN_ELEMENT_THEORY":"SGP4","REV_AT_EPOCH":"14875","RA_OF_ASC_NODE":"307.0428","ARG_OF_PERICENTER":"57.1567","TLE_LINE2":"2 45554  53.0562 307.0428 0001662  57.1567 302.9582 15.06392092148757","MEAN_MOTION_DOT":"0.00001003","CLASSIFICATION_TYPE":"U","OBJECT_TYPE":"PAYLOAD","PERIAPSIS":"546.087","FILE":"3720518","TLE_LINE1":"1 45554U 20025Z   22357.88676998  .00001003  00000-0  86238-4 0  9997","EPOCH":"2022-12-23T21:16:56.926272","RCS_SIZE":"LARGE","COUNTRY_CODE":"US","LAUNCH_DATE":"2020-04-22","OBJECT_NAME":"STARLINK-1325","MEAN_ANOMALY":"302.9582","OBJECT_ID":"2020-025Z","SITE":"AFETR","SEMIMAJOR_AXIS":"6925.373"},{"REF_FRAME":"TEME","NORAD_CAT_ID":"45555","EPHEMERIS_TYPE":"0","DECAY_DATE":null,"INCLINATION":"53.0521","ECCENTRICITY":"0.00013010","APOAPSIS":"548.117","ELEMENT_SET_NO":"999","MEAN_MOTION":"15.06399255","GP_ID":"221303866","TIME_SYSTEM":"UTC","CENTER_NAME":"EARTH","PERIOD":"95.592","BSTAR":"0.00025817000000","REV_AT_EPOCH":"14874","MEAN_MOTION_DDOT":"0.0000000000000","MEAN_ELEMENT_THEORY":"SGP4","ARG_OF_PERICENTER":"88.4947","RA_OF_ASC_NODE":"307.2164","MEAN_MOTION_DOT":"0.00003566","TLE_LINE2":"2 45555  53.0521 307.2164 0001301  88.4947 271.6191 15.06399255148746","CLASSIFICATION_TYPE":"U","FILE":"3720518","OBJECT_TYPE":"PAYLOAD","PERIAPSIS":"546.315","EPOCH":"2022-12-23T20:25:13.983456","RCS_SIZE":"LARGE","COUNTRY_CODE":"US","TLE_LINE1":"1 45555U 20025AA  22357.85085629  .00003566  00000-0  25817-3 0  9991","LAUNCH_DATE":"2020-04-22","OBJECT_NAME":"STARLINK-1327","MEAN_ANOMALY":"271.6191","OBJECT_ID":"2020-025AA","SEMIMAJOR_AXIS":"6925.351","SITE":"AFETR"},{"NORAD_CAT_ID":"45556","EPHEMERIS_TYPE":"0","REF_FRAME":"TEME","INCLINATION":"53.0556","DECAY_DATE":null,"MEAN_MOTION":"15.06382356","ELEMENT_SET_NO":"999","APOAPSIS":"548.423","ECCENTRICITY":"0.00016690","GP_ID":"221272243","PERIOD":"95.593","CENTER_NAME":"EARTH","TIME_SYSTEM":"UTC","BSTAR":"0.00004067500000","MEAN_ELEMENT_THEORY":"SGP4","MEAN_MOTION_DDOT":"0.0000000000000","REV_AT_EPOCH":"14870","RA_OF_ASC_NODE":"308.5150","ARG_OF_PERICENTER":"59.6222","TLE_LINE2":"2 45556  53.0556 308.5150 0001669  59.6222 300.4932 15.06382356148701","MEAN_MOTION_DOT":"0.00000324","CLASSIFICATION_TYPE":"U","OBJECT_TYPE":"PAYLOAD","PERIAPSIS":"546.112","FILE":"3720302","TLE_LINE1":"1 45556U 20025AB  22357.55967108  .00000324  00000-0  40675-4 0  9999","COUNTRY_CODE":"US","EPOCH":"2022-12-23T13:25:55.581312","RCS_SIZE":"LARGE","OBJECT_NAME":"STARLINK-1334","LAUNCH_DATE":"2020-04-22","MEAN_ANOMALY":"300.4932","OBJECT_ID":"2020-025AB","SITE":"AFETR","SEMIMAJOR_AXIS":"6925.403"},{"INCLINATION":"53.0541","DECAY_DATE":null,"REF_FRAME":"TEME","EPHEMERIS_TYPE":"0","NORAD_CAT_ID":"45557","GP_ID":"221281233","MEAN_MOTION":"15.06386770","ELEMENT_SET_NO":"999","ECCENTRICITY":"0.00014200","APOAPSIS":"548.238","BSTAR":"0.00010658000000","PERIOD":"95.593","CENTER_NAME":"EARTH","TIME_SYSTEM":"UTC","RA_OF_ASC_NODE":"308.4804","ARG_OF_PERICENTER":"68.6576","MEAN_MOTION_DDOT":"0.0000000000000","MEAN_ELEMENT_THEORY":"SGP4","REV_AT_EPOCH":"14810","CLASSIFICATION_TYPE":"U","TLE_LINE2":"2 45557  53.0541 308.4804 0001420  68.6576 291.4565 15.06386770148107","MEAN_MOTION_DOT":"0.00001306","TLE_LINE1":"1 45557U 20025AC  22357.56704060  .00001306  00000-0  10658-3 0  9995","EPOCH":"2022-12-23T13:36:32.307840","RCS_SIZE":"LARGE","COUNTRY_CODE":"US","OBJECT_TYPE":"PAYLOAD","PERIAPSIS":"546.271","FILE":"3720402","MEAN_ANOMALY":"291.4565","LAUNCH_DATE":"2020-04-22","OBJECT_NAME":"STARLINK-1336","SITE":"AFETR","SEMIMAJOR_AXIS":"6925.389","OBJECT_ID":"2020-025AC"},{"REV_AT_EPOCH":"14874","MEAN_ELEMENT_THEORY":"SGP4","MEAN_MOTION_DDOT":"0.0000000000000","ARG_OF_PERICENTER":"61.7836","RA_OF_ASC_NODE":"307.1496","CENTER_NAME":"EARTH","TIME_SYSTEM":"UTC","PERIOD":"95.592","BSTAR":"0.00014546000000","APOAPSIS":"548.513","ECCENTRICITY":"0.00018540","ELEMENT_SET_NO":"999","MEAN_MOTION":"15.06394922","GP_ID":"221303117","NORAD_CAT_ID":"45558","EPHEMERIS_TYPE":"0","REF_FRAME":"TEME","DECAY_DATE":null,"INCLINATION":"53.0550","OBJECT_ID":"2020-025AD","SEMIMAJOR_AXIS":"6925.364","SITE":"AFETR","OBJECT_NAME":"STARLINK-1342","LAUNCH_DATE":"2020-04-22","MEAN_ANOMALY":"298.3340","FILE":"3720518","OBJECT_TYPE":"PAYLOAD","PERIAPSIS":"545.945","COUNTRY_CODE":"US","EPOCH":"2022-12-23T20:46:28.029216","RCS_SIZE":"LARGE","TLE_LINE1":"1 45558U 20025AD  22357.86560219  .00001885  00000-0  14546-3 0  9997","MEAN_MOTION_DOT":"0.00001885","TLE_LINE2":"2 45558  53.0550 307.1496 0001854  61.7836 298.3340 15.06394922148740","CLASSIFICATION_TYPE":"U"},{"TLE_LINE1":"1 45559U 20025AE  22357.56609529  .00003467  00000-0  25165-3 0  9990","EPOCH":"2022-12-23T13:35:10.633056","RCS_SIZE":"LARGE","COUNTRY_CODE":"US","OBJECT_TYPE":"PAYLOAD","PERIAPSIS":"546.263","FILE":"3720365","CLASSIFICATION_TYPE":"U","TLE_LINE2":"2 45559  53.0562 308.4305 0001449  59.1845 300.9287 15.06382695148102","MEAN_MOTION_DOT":"0.00003467","SITE":"AFETR","SEMIMAJOR_AXIS":"6925.402","OBJECT_ID":"2020-025AE","MEAN_ANOMALY":"300.9287","LAUNCH_DATE":"2020-04-22","OBJECT_NAME":"STARLINK-1344","GP_ID":"221280168","MEAN_MOTION":"15.06382695","ELEMENT_SET_NO":"999","ECCENTRICITY":"0.00014490","APOAPSIS":"548.270","INCLINATION":"53.0562","DECAY_DATE":null,"REF_FRAME":"TEME","NORAD_CAT_ID":"45559","EPHEMERIS_TYPE":"0","RA_OF_ASC_NODE":"308.4305","ARG_OF_PERICENTER":"59.1845","MEAN_MOTION_DDOT":"0.0000000000000","MEAN_ELEMENT_THEORY":"SGP4","REV_AT_EPOCH":"14810","BSTAR":"0.00025165000000","PERIOD":"95.593","CENTER_NAME":"EARTH","TIME_SYSTEM":"UTC"},{"LAUNCH_DATE":"2020-04-22","OBJECT_NAME":"STARLINK-1346","MEAN_ANOMALY":"292.8438","OBJECT_ID":"2020-025AF","SEMIMAJOR_AXIS":"6925.401","SITE":"AFETR","MEAN_MOTION_DOT":"0.00001107","TLE_LINE2":"2 45560  53.0545 298.5333 0001494  67.2709 292.8438 15.06382803148247","CLASSIFICATION_TYPE":"U","FILE":"3720373","OBJECT_TYPE":"PAYLOAD","PERIAPSIS":"546.232","RCS_SIZE":"LARGE","EPOCH":"2022-12-23T13:20:35.211840","COUNTRY_CODE":"US","TLE_LINE1":"1 45560U 20025AF  22357.55596310  .00001107  00000-0  93232-4 0  9994","CENTER_NAME":"EARTH","TIME_SYSTEM":"UTC","PERIOD":"95.593","BSTAR":"0.00009323200000","REV_AT_EPOCH":"14824","MEAN_MOTION_DDOT":"0.0000000000000","MEAN_ELEMENT_THEORY":"SGP4","ARG_OF_PERICENTER":"67.2709","RA_OF_ASC_NODE":"298.5333","REF_FRAME":"TEME","EPHEMERIS_TYPE":"0","NORAD_CAT_ID":"45560","DECAY_DATE":null,"INCLINATION":"53.0545","ECCENTRICITY":"0.00014940","APOAPSIS":"548.301","ELEMENT_SET_NO":"999","MEAN_MOTION":"15.06382803","GP_ID":"221280591"},{"LAUNCH_DATE":"2020-04-22","OBJECT_NAME":"STARLINK-1348","MEAN_ANOMALY":"234.3119","OBJECT_ID":"2020-025AG","SITE":"AFETR","SEMIMAJOR_AXIS":"6872.731","TLE_LINE2":"2 45561  53.0657 201.7624 0005949 125.8431 234.3119 15.23732662150233","MEAN_MOTION_DOT":"0.00040521","CLASSIFICATION_TYPE":"U","OBJECT_TYPE":"PAYLOAD","PERIAPSIS":"490.507","FILE":"3720518","TLE_LINE1":"1 45561U 20025AG  22357.84304516  .00040521  00000-0  16686-2 0  9991","RCS_SIZE":"LARGE","EPOCH":"2022-12-23T20:13:59.101824","COUNTRY_CODE":"US","PERIOD":"94.505","CENTER_NAME":"EARTH","TIME_SYSTEM":"UTC","BSTAR":"0.00166860000000","MEAN_MOTION_DDOT":"0.0000000000000","MEAN_ELEMENT_THEORY":"SGP4","REV_AT_EPOCH":"15023","RA_OF_ASC_NODE":"201.7624","ARG_OF_PERICENTER":"125.8431","REF_FRAME":"TEME","EPHEMERIS_TYPE":"0","NORAD_CAT_ID":"45561","INCLINATION":"53.0657","DECAY_DATE":null,"ELEMENT_SET_NO":"999","MEAN_MOTION":"15.23732662","ECCENTRICITY":"0.00059490","APOAPSIS":"498.684","GP_ID":"221302367"},{"MEAN_MOTION":"15.06385353","ELEMENT_SET_NO":"999","ECCENTRICITY":"0.00016330","APOAPSIS":"548.389","GP_ID":"221302617","REF_FRAME":"TEME","EPHEMERIS_TYPE":"0","NORAD_CAT_ID":"45562","INCLINATION":"53.0562","DECAY_DATE":null,"MEAN_MOTION_DDOT":"0.0000000000000","MEAN_ELEMENT_THEORY":"SGP4","REV_AT_EPOCH":"14870","RA_OF_ASC_NODE":"308.4237","ARG_OF_PERICENTER":"60.4737","PERIOD":"95.593","TIME_SYSTEM":"UTC","CENTER_NAME":"EARTH","BSTAR":"0.00005805500000","OBJECT_TYPE":"PAYLOAD","PERIAPSIS":"546.128","FILE":"3720518","TLE_LINE1":"1 45562U 20025AH  22357.57810133  .00000583  00000-0  58055-4 0  9991","RCS_SIZE":"LARGE","EPOCH":"2022-12-23T13:52:27.954912","COUNTRY_CODE":"US","TLE_LINE2":"2 45562  53.0562 308.4237 0001633  60.4737 299.6415 15.06385353148707","MEAN_MOTION_DOT":"0.00000583","CLASSIFICATION_TYPE":"U","OBJECT_ID":"2020-025AH","SITE":"AFETR","SEMIMAJOR_AXIS":"6925.393","LAUNCH_DATE":"2020-04-22","OBJECT_NAME":"STARLINK-1354","MEAN_ANOMALY":"299.6415"}];
